OBJECT_NAME,OBJECT_ID,EPOCH,MEAN_MOTION,ECCENTRICITY,INCLINATION,RA_OF_ASC_NODE,ARG_OF_PERICENTER,MEAN_ANOMALY,EPHEMERIS_TYPE,CLASSIFICATION_TYPE,NORAD_CAT_ID,ELEMENT_SET_NO,REV_AT_EPOCH,BSTAR,MEAN_MOTION_DOT,MEAN_MOTION_DDOT
LEMUR-2-FINNIAN,2025-276DX,2026-07-24T03:45:55.191456,15.00695968,.00068637,97.5353,275.0024,323.9475,36.1286,0,U,66782,999,2554,.53113028E-3,.6674E-4,0
LEMUR-2-STARLIGHT,2025-276DY,2026-07-24T03:28:48.218592,14.99445517,.00143942,97.5247,274.5227,19.8181,340.3599,0,U,66783,999,3573,.63056131E-3,.7692E-4,0
LEMUR-2-TARTIFLETTE,2025-276DZ,2026-07-24T03:26:39.307200,14.99426891,.00136844,97.5245,274.5287,28.8563,331.3414,0,U,66784,999,3573,.63443025E-3,.7734E-4,0
LEMUR-2-VUKASIN,2025-276EA,2026-07-24T04:09:43.526016,15.00616850,.00016857,97.5196,274.9294,17.7543,342.3740,0,U,66785,999,3569,.5573649E-3,.6989E-4,0
LEMUR-2-HOTSPUR-TOM,2025-276EB,2026-07-24T04:55:34.604832,14.99322922,.00134059,97.5221,274.5591,20.6970,339.4794,0,U,66786,999,3567,.63042167E-3,.7664E-4,0
LEMUR-2-MYRA,2025-276EC,2026-07-24T03:19:11.962560,15.00671520,.00184368,97.5231,274.8175,26.6921,333.5249,0,U,66787,999,3575,.57615728E-3,.7262E-4,0
LEMUR-2 FIKRETDENGIZ,2026-004A,2026-07-23T23:22:11.898048,14.88567182,.00095047,97.8037,202.9750,30.2170,329.9593,0,U,67363,999,2875,.41795222E-3,.3839E-4,0
TWILIGHT-1 OBJECT B,2026-004B,2026-07-23T22:45:04.397184,14.87816472,.00090647,97.8080,202.9453,19.8066,340.3501,0,U,67364,999,2875,.19232867E-3,.1704E-4,0
LEMUR-2-MARIO-SOUSA,2026-004C,2026-07-23T22:51:23.982624,14.88783213,.00091882,97.8007,202.9484,32.3978,327.7801,0,U,67365,999,2876,.52064433E-3,.4821E-4,0
LEMUR-2-SONNENBLUME,2026-004E,2026-07-23T22:57:53.955072,14.88488844,.00088119,97.8005,202.9218,33.1516,327.0251,0,U,67367,999,2876,.32633849E-3,.2979E-4,0
LEMUR-2-WOBLER,2026-004F,2026-07-23T19:26:47.150880,14.88744724,.00087955,97.8057,202.9374,25.1252,335.0392,0,U,67368,999,2874,.45022637E-3,.4157E-4,0
LEMUR-2-GRAM-E-SUE,2026-004H,2026-07-24T00:06:47.788992,14.88621124,.00080291,97.7994,202.9858,36.6585,323.5179,0,U,67370,999,2877,.25628441E-3,.2335E-4,0
LEMUR-2-KATIE,2026-004AA,2026-07-22T22:40:20.649216,14.90299200,.00027726,97.8053,202.5193,14.1370,345.9925,0,U,67387,999,2863,.5090192E-3,.4891E-4,0
LEMUR-2-HCS-BAZUS,2026-004AB,2026-07-23T11:31:23.295072,14.90305691,.0002214,97.8041,203.0256,14.5071,345.6209,0,U,67388,999,2871,.40341E-3,.3865E-4,0
