LEMUR-2-FINNIAN         
1 66782U 25276DX  26205.15688879  .00006674  00000+0  53113-3 0  9996
2 66782  97.5353 275.0024 0006863 323.9475  36.1286 15.00695968 25540
LEMUR-2-STARLIGHT       
1 66783U 25276DY  26205.14500253  .00007692  00000+0  63056-3 0  9993
2 66783  97.5247 274.5227 0014394  19.8181 340.3599 14.99445517 35734
LEMUR-2-TARTIFLETTE     
1 66784U 25276DZ  26205.14351050  .00007734  00000+0  63443-3 0  9990
2 66784  97.5245 274.5287 0013684  28.8563 331.3414 14.99426891 35734
LEMUR-2-VUKASIN         
1 66785U 25276EA  26205.17342044  .00006989  00000+0  55736-3 0  9994
2 66785  97.5196 274.9294 0001685  17.7543 342.3740 15.00616850 35693
LEMUR-2-HOTSPUR-TOM     
1 66786U 25276EB  26205.20526163  .00007664  00000+0  63042-3 0  9995
2 66786  97.5221 274.5591 0013405  20.6970 339.4794 14.99322922 35674
LEMUR-2-MYRA            
1 66787U 25276EC  26205.13833290  .00007262  00000+0  57616-3 0  9994
2 66787  97.5231 274.8175 0018436  26.6921 333.5249 15.00671520 35751
LEMUR-2 FIKRETDENGIZ    
1 67363U 26004A   26204.97374882  .00003839  00000+0  41795-3 0  9990
2 67363  97.8037 202.9750 0009504  30.2170 329.9593 14.88567182 28759
TWILIGHT-1 OBJECT B     
1 67364U 26004B   26204.94796756  .00001704  00000+0  19233-3 0  9997
2 67364  97.8080 202.9453 0009064  19.8066 340.3501 14.87816472 28750
LEMUR-2-MARIO-SOUSA     
1 67365U 26004C   26204.95236091  .00004821  00000+0  52064-3 0  9992
2 67365  97.8007 202.9484 0009188  32.3978 327.7801 14.88783213 28763
LEMUR-2-SONNENBLUME     
1 67367U 26004E   26204.95687448  .00002979  00000+0  32634-3 0  9993
2 67367  97.8005 202.9218 0008811  33.1516 327.0251 14.88488844 28761
LEMUR-2-WOBLER          
1 67368U 26004F   26204.81026795  .00004157  00000+0  45023-3 0  9997
2 67368  97.8057 202.9374 0008795  25.1252 335.0392 14.88744724 28746
LEMUR-2-GRAM-E-SUE      
1 67370U 26004H   26205.00471978  .00002335  00000+0  25628-3 0  9994
2 67370  97.7994 202.9858 0008029  36.6585 323.5179 14.88621124 28777
LEMUR-2-KATIE           
1 67387U 26004AA  26203.94468344  .00004891  00000+0  50902-3 0  9998
2 67387  97.8053 202.5193 0002772  14.1370 345.9925 14.90299200 28633
LEMUR-2-HCS-BAZUS       
1 67388U 26004AB  26204.48013073  .00003865  00000+0  40341-3 0  9990
2 67388  97.8041 203.0256 0002214  14.5071 345.6209 14.90305691 28713
